[
    {
        "CCSDS_OMM_VERS": "3.0",
        "COMMENT": "GENERATED VIA SPACE-TRACK.ORG API",
        "CREATION_DATE": "2025-05-04T02:26:54",
        "ORIGINATOR": "18 SPCS",
        "OBJECT_NAME": "GALILEO 18 (26E)",
        "OBJECT_ID": "2016-069D",
        "CENTER_NAME": "EARTH",
        "REF_FRAME": "TEME",
        "TIME_SYSTEM": "UTC",
        "MEAN_ELEMENT_THEORY": "SGP4",
        "EPOCH": "2025-05-03T02:10:49.305216",
        "MEAN_MOTION": "1.70474409",
        "ECCENTRICITY": "0.00049280",
        "INCLINATION": "55.2517",
        "RA_OF_ASC_NODE": "112.4411",
        "ARG_OF_PERICENTER": "297.5332",
        "MEAN_ANOMALY": "62.4008",
        "EPHEMERIS_TYPE": "0",
        "CLASSIFICATION_TYPE": "U",
        "NORAD_CAT_ID": "41862",
        "ELEMENT_SET_NO": "999",
        "REV_AT_EPOCH": "5265",
        "BSTAR": "0.00000000000000",
        "MEAN_MOTION_DOT": "0.00000040",
        "MEAN_MOTION_DDOT": "0.0000000000000",
        "SEMIMAJOR_AXIS": "29600.273",
        "PERIOD": "844.702",
        "APOAPSIS": "23236.725",
        "PERIAPSIS": "23207.551",
        "OBJECT_TYPE": "PAYLOAD",
        "RCS_SIZE": "LARGE",
        "COUNTRY_CODE": "ESA",
        "LAUNCH_DATE": "2016-11-17",
        "SITE": "FRGUI",
        "DECAY_DATE": null,
        "FILE": "4718307",
        "GP_ID": "286798695",
        "TLE_LINE0": "0 GALILEO 18 (26E)",
        "TLE_LINE1": "1 41862U 16069D   25123.09084844  .00000040  00000-0  00000-0 0  9997",
        "TLE_LINE2": "2 41862  55.2517 112.4411 0004928 297.5332  62.4008  1.70474409 52650"
    }
]